[{"OBJECT_NAME":"STARLINK-6062","OBJECT_ID":"2023-046M","EPOCH":"2026-03-09T05:42:53.104032","MEAN_MOTION":15.02533078,"ECCENTRICITY":0.00017555,"INCLINATION":43.0034,"RA_OF_ASC_NODE":161.441,"ARG_OF_PERICENTER":267.6803,"MEAN_ANOMALY":92.3838,"EPHEMERIS_TYPE":0,"CLASSIFICATION_TYPE":"U","NORAD_CAT_ID":56104,"ELEMENT_SET_NO":999,"REV_AT_EPOCH":16199,"BSTAR":-6.205985e-6,"MEAN_MOTION_DOT":-2.88e-6,"MEAN_MOTION_DDOT":0},{"OBJECT_NAME":"PEGASUS R\/B","OBJECT_ID":"1998-071B","EPOCH":"2026-03-09T18:27:50.570784","MEAN_MOTION":15.03047703,"ECCENTRICITY":0.0004531,"INCLINATION":69.9123,"RA_OF_ASC_NODE":198.9358,"ARG_OF_PERICENTER":7.5622,"MEAN_ANOMALY":352.5606,"EPHEMERIS_TYPE":0,"CLASSIFICATION_TYPE":"U","NORAD_CAT_ID":25561,"ELEMENT_SET_NO":999,"REV_AT_EPOCH":48091,"BSTAR":0.00030278547,"MEAN_MOTION_DOT":3.992e-5,"MEAN_MOTION_DDOT":0}]
